CCSDS_OMM_VERS = 2.0
CREATION_DATE  = 
ORIGINATOR     = 

OBJECT_NAME    = STARLINK-35395
OBJECT_ID      = 2025-232K
CENTER_NAME    = EARTH
REF_FRAME      = TEME
TIME_SYSTEM    = UTC
MEAN_ELEMENT_THEORY = SGP/SGP4

EPOCH          = 2025-11-05T06:00:00.999648
MEAN_MOTION    = 15.49268636
ECCENTRICITY   = .00017775
INCLINATION    = 53.1587
RA_OF_ASC_NODE = 324.3821
ARG_OF_PERICENTER = 62.2398
MEAN_ANOMALY   = 118.2445

EPHEMERIS_TYPE = 0
CLASSIFICATION_TYPE = U
NORAD_CAT_ID   = 66014
ELEMENT_SET_NO = 999
REV_AT_EPOCH   = 351
BSTAR          = .75575576E-3
MEAN_MOTION_DOT = .41749E-3
MEAN_MOTION_DDOT = 0

CCSDS_OMM_VERS = 2.0
CREATION_DATE  = 
ORIGINATOR     = 

OBJECT_NAME    = STARLINK-34622
OBJECT_ID      = 2025-232L
CENTER_NAME    = EARTH
REF_FRAME      = TEME
TIME_SYSTEM    = UTC
MEAN_ELEMENT_THEORY = SGP/SGP4

EPOCH          = 2025-11-05T06:00:00.999648
MEAN_MOTION    = 15.49268995
ECCENTRICITY   = .00019577
INCLINATION    = 53.1587
RA_OF_ASC_NODE = 324.3659
ARG_OF_PERICENTER = 61.8214
MEAN_ANOMALY   = 126.3282

EPHEMERIS_TYPE = 0
CLASSIFICATION_TYPE = U
NORAD_CAT_ID   = 66015
ELEMENT_SET_NO = 999
REV_AT_EPOCH   = 341
BSTAR          = .78456167E-3
MEAN_MOTION_DOT = .43368E-3
MEAN_MOTION_DDOT = 0

CCSDS_OMM_VERS = 2.0
CREATION_DATE  = 
ORIGINATOR     = 

OBJECT_NAME    = STARLINK-35243
OBJECT_ID      = 2025-232M
CENTER_NAME    = EARTH
REF_FRAME      = TEME
TIME_SYSTEM    = UTC
MEAN_ELEMENT_THEORY = SGP/SGP4

EPOCH          = 2025-11-05T06:00:00.999648
MEAN_MOTION    = 15.49268939
ECCENTRICITY   = .00019175
INCLINATION    = 53.1587
RA_OF_ASC_NODE = 324.3697
ARG_OF_PERICENTER = 62.1442
MEAN_ANOMALY   = 124.0853

EPHEMERIS_TYPE = 0
CLASSIFICATION_TYPE = U
NORAD_CAT_ID   = 66016
ELEMENT_SET_NO = 999
REV_AT_EPOCH   = 352
BSTAR          = .75670134E-3
MEAN_MOTION_DOT = .41803E-3
MEAN_MOTION_DDOT = 0

CCSDS_OMM_VERS = 2.0
CREATION_DATE  = 
ORIGINATOR     = 

OBJECT_NAME    = STARLINK-35398
OBJECT_ID      = 2025-232N
CENTER_NAME    = EARTH
REF_FRAME      = TEME
TIME_SYSTEM    = UTC
MEAN_ELEMENT_THEORY = SGP/SGP4

EPOCH          = 2025-11-05T06:00:00.999648
MEAN_MOTION    = 15.49792645
ECCENTRICITY   = .0001895
INCLINATION    = 53.1729
RA_OF_ASC_NODE = 324.3584
ARG_OF_PERICENTER = 69.2952
MEAN_ANOMALY   = 122.6003

EPHEMERIS_TYPE = 0
CLASSIFICATION_TYPE = U
NORAD_CAT_ID   = 66017
ELEMENT_SET_NO = 999
REV_AT_EPOCH   = 344
BSTAR          = -.33264356E-1
MEAN_MOTION_DOT = -.1683606E-1
MEAN_MOTION_DDOT = 0

CCSDS_OMM_VERS = 2.0
CREATION_DATE  = 
ORIGINATOR     = 

OBJECT_NAME    = STARLINK-35376
OBJECT_ID      = 2025-232P
CENTER_NAME    = EARTH
REF_FRAME      = TEME
TIME_SYSTEM    = UTC
MEAN_ELEMENT_THEORY = SGP/SGP4

EPOCH          = 2025-11-05T06:00:00.999648
MEAN_MOTION    = 15.49269808
ECCENTRICITY   = .00020107
INCLINATION    = 53.1587
RA_OF_ASC_NODE = 324.3619
ARG_OF_PERICENTER = 60.7063
MEAN_ANOMALY   = 129.3603

EPHEMERIS_TYPE = 0
CLASSIFICATION_TYPE = U
NORAD_CAT_ID   = 66018
ELEMENT_SET_NO = 999
REV_AT_EPOCH   = 352
BSTAR          = .75816766E-3
MEAN_MOTION_DOT = .41887E-3
MEAN_MOTION_DDOT = 0

CCSDS_OMM_VERS = 2.0
CREATION_DATE  = 
ORIGINATOR     = 

OBJECT_NAME    = STARLINK-35382
OBJECT_ID      = 2025-232Q
CENTER_NAME    = EARTH
REF_FRAME      = TEME
TIME_SYSTEM    = UTC
MEAN_ELEMENT_THEORY = SGP/SGP4

EPOCH          = 2025-11-05T06:00:00.999648
MEAN_MOTION    = 15.49265071
ECCENTRICITY   = .00018884
INCLINATION    = 53.1587
RA_OF_ASC_NODE = 324.3733
ARG_OF_PERICENTER = 62.0887
MEAN_ANOMALY   = 122.2302

EPHEMERIS_TYPE = 0
CLASSIFICATION_TYPE = U
NORAD_CAT_ID   = 66019
ELEMENT_SET_NO = 999
REV_AT_EPOCH   = 352
BSTAR          = .76019718E-3
MEAN_MOTION_DOT = .41994E-3
MEAN_MOTION_DDOT = 0

CCSDS_OMM_VERS = 2.0
CREATION_DATE  = 
ORIGINATOR     = 

OBJECT_NAME    = STARLINK-35430
OBJECT_ID      = 2025-232R
CENTER_NAME    = EARTH
REF_FRAME      = TEME
TIME_SYSTEM    = UTC
MEAN_ELEMENT_THEORY = SGP/SGP4

EPOCH          = 2025-11-05T06:00:00.999648
MEAN_MOTION    = 15.49272937
ECCENTRICITY   = .00020776
INCLINATION    = 53.1588
RA_OF_ASC_NODE = 324.3500
ARG_OF_PERICENTER = 60.8601
MEAN_ANOMALY   = 134.9482

EPHEMERIS_TYPE = 0
CLASSIFICATION_TYPE = U
NORAD_CAT_ID   = 66020
ELEMENT_SET_NO = 999
REV_AT_EPOCH   = 351
BSTAR          = .78165805E-3
MEAN_MOTION_DOT = .43211E-3
MEAN_MOTION_DDOT = 0

CCSDS_OMM_VERS = 2.0
CREATION_DATE  = 
ORIGINATOR     = 

OBJECT_NAME    = STARLINK-35432
OBJECT_ID      = 2025-232S
CENTER_NAME    = EARTH
REF_FRAME      = TEME
TIME_SYSTEM    = UTC
MEAN_ELEMENT_THEORY = SGP/SGP4

EPOCH          = 2025-11-05T06:00:00.999648
MEAN_MOTION    = 15.49271000
ECCENTRICITY   = .00019084
INCLINATION    = 53.1587
RA_OF_ASC_NODE = 324.3538
ARG_OF_PERICENTER = 61.5915
MEAN_ANOMALY   = 132.3024

EPHEMERIS_TYPE = 0
CLASSIFICATION_TYPE = U
NORAD_CAT_ID   = 66021
ELEMENT_SET_NO = 999
REV_AT_EPOCH   = 344
BSTAR          = .78303623E-3
MEAN_MOTION_DOT = .43285E-3
MEAN_MOTION_DDOT = 0

CCSDS_OMM_VERS = 2.0
CREATION_DATE  = 
ORIGINATOR     = 

OBJECT_NAME    = STARLINK-35340
OBJECT_ID      = 2025-232T
CENTER_NAME    = EARTH
REF_FRAME      = TEME
TIME_SYSTEM    = UTC
MEAN_ELEMENT_THEORY = SGP/SGP4

EPOCH          = 2025-11-05T06:00:00.999648
MEAN_MOTION    = 15.49338239
ECCENTRICITY   = .00014812
INCLINATION    = 53.1588
RA_OF_ASC_NODE = 324.3452
ARG_OF_PERICENTER = 78.4735
MEAN_ANOMALY   = 119.3535

EPHEMERIS_TYPE = 0
CLASSIFICATION_TYPE = U
NORAD_CAT_ID   = 66022
ELEMENT_SET_NO = 999
REV_AT_EPOCH   = 351
BSTAR          = -.17904444E-2
MEAN_MOTION_DOT = -.98881E-3
MEAN_MOTION_DDOT = 0

CCSDS_OMM_VERS = 2.0
CREATION_DATE  = 
ORIGINATOR     = 

OBJECT_NAME    = STARLINK-35394
OBJECT_ID      = 2025-232U
CENTER_NAME    = EARTH
REF_FRAME      = TEME
TIME_SYSTEM    = UTC
MEAN_ELEMENT_THEORY = SGP/SGP4

EPOCH          = 2025-11-05T06:00:00.999648
MEAN_MOTION    = 15.49341713
ECCENTRICITY   = .00013772
INCLINATION    = 53.1585
RA_OF_ASC_NODE = 324.3412
ARG_OF_PERICENTER = 84.9862
MEAN_ANOMALY   = 114.7517

EPHEMERIS_TYPE = 0
CLASSIFICATION_TYPE = U
NORAD_CAT_ID   = 66023
ELEMENT_SET_NO = 999
REV_AT_EPOCH   = 351
BSTAR          = -.17842484E-2
MEAN_MOTION_DOT = -.98555E-3
MEAN_MOTION_DDOT = 0

CCSDS_OMM_VERS = 2.0
CREATION_DATE  = 
ORIGINATOR     = 

OBJECT_NAME    = STARLINK-35410
OBJECT_ID      = 2025-232V
CENTER_NAME    = EARTH
REF_FRAME      = TEME
TIME_SYSTEM    = UTC
MEAN_ELEMENT_THEORY = SGP/SGP4

EPOCH          = 2025-11-05T06:00:00.999648
MEAN_MOTION    = 15.49335810
ECCENTRICITY   = .00016045
INCLINATION    = 53.1585
RA_OF_ASC_NODE = 324.3333
ARG_OF_PERICENTER = 80.1199
MEAN_ANOMALY   = 123.4567

EPHEMERIS_TYPE = 0
CLASSIFICATION_TYPE = U
NORAD_CAT_ID   = 66024
ELEMENT_SET_NO = 999
REV_AT_EPOCH   = 351
BSTAR          = -.16578229E-2
MEAN_MOTION_DOT = -.91667E-3
MEAN_MOTION_DDOT = 0

CCSDS_OMM_VERS = 2.0
CREATION_DATE  = 
ORIGINATOR     = 

OBJECT_NAME    = STARLINK-35280
OBJECT_ID      = 2025-232W
CENTER_NAME    = EARTH
REF_FRAME      = TEME
TIME_SYSTEM    = UTC
MEAN_ELEMENT_THEORY = SGP/SGP4

EPOCH          = 2025-11-05T06:00:00.999648
MEAN_MOTION    = 15.49341183
ECCENTRICITY   = .00014737
INCLINATION    = 53.1585
RA_OF_ASC_NODE = 324.3370
ARG_OF_PERICENTER = 76.1579
MEAN_ANOMALY   = 125.5011

EPHEMERIS_TYPE = 0
CLASSIFICATION_TYPE = U
NORAD_CAT_ID   = 66025
ELEMENT_SET_NO = 999
REV_AT_EPOCH   = 345
BSTAR          = -.19088171E-2
MEAN_MOTION_DOT = -.105313E-2
MEAN_MOTION_DDOT = 0

