STARLINK-35395          
1 66014U 25232K   25309.25001157  .00041749  00000+0  75576-3 0  9998
2 66014  53.1587 324.3821 0001777  62.2398 118.2445 15.49268636  3517
STARLINK-34622          
1 66015U 25232L   25309.25001157  .00043368  00000+0  78456-3 0  9998
2 66015  53.1587 324.3659 0001957  61.8214 126.3282 15.49268995  3415
STARLINK-35243          
1 66016U 25232M   25309.25001157  .00041803  00000+0  75670-3 0  9996
2 66016  53.1587 324.3697 0001917  62.1442 124.0853 15.49268939  3520
STARLINK-35398          
1 66017U 25232N   25309.25001157 -.01683606  00000+0 -33264-1 0  9994
2 66017  53.1729 324.3584 0001895  69.2952 122.6003 15.49792645  3441
STARLINK-35376          
1 66018U 25232P   25309.25001157  .00041887  00000+0  75817-3 0  9993
2 66018  53.1587 324.3619 0002010  60.7063 129.3603 15.49269808  3521
STARLINK-35382          
1 66019U 25232Q   25309.25001157  .00041994  00000+0  76020-3 0  9990
2 66019  53.1587 324.3733 0001888  62.0887 122.2302 15.49265071  3526
STARLINK-35430          
1 66020U 25232R   25309.25001157  .00043211  00000+0  78166-3 0  9999
2 66020  53.1588 324.3500 0002077  60.8601 134.9482 15.49272937  3519
STARLINK-35432          
1 66021U 25232S   25309.25001157  .00043285  00000+0  78304-3 0  9995
2 66021  53.1587 324.3538 0001908  61.5915 132.3024 15.49271000  3444
STARLINK-35340          
1 66022U 25232T   25309.25001157 -.00098881  00000+0 -17904-2 0  9998
2 66022  53.1588 324.3452 0001481  78.4735 119.3535 15.49338239  3512
STARLINK-35394          
1 66023U 25232U   25309.25001157 -.00098555  00000+0 -17842-2 0  9998
2 66023  53.1585 324.3412 0001377  84.9862 114.7517 15.49341713  3513
STARLINK-35410          
1 66024U 25232V   25309.25001157 -.00091667  00000+0 -16578-2 0  9991
2 66024  53.1585 324.3333 0001604  80.1199 123.4567 15.49335810  3513
STARLINK-35280          
1 66025U 25232W   25309.25001157 -.00105313  00000+0 -19088-2 0  9995
2 66025  53.1585 324.3370 0001473  76.1579 125.5011 15.49341183  3456
